[
  {
    "COMMENT": "GENERATED VIA SPACETRACK.ORG API",
    "ORIGINATOR": "18 SPCS",
    "NORAD_CAT_ID": "43682",
    "OBJECT_NAME": "H-2A R/B",
    "OBJECT_TYPE": "ROCKET BODY",
    "CLASSIFICATION_TYPE": "U",
    "INTLDES": "18084L",
    "EPOCH": "2020-05-27 14:47:31",
    "EPOCH_MICROSECONDS": "682688",
    "MEAN_MOTION": "15.0283605",
    "ECCENTRICITY": "0.005688",
    "INCLINATION": "98.9011",
    "RA_OF_ASC_NODE": "352.5931",
    "ARG_OF_PERICENTER": "201.3442",
    "MEAN_ANOMALY": "158.5382",
    "EPHEMERIS_TYPE": "0",
    "ELEMENT_SET_NO": "999",
    "REV_AT_EPOCH": "8652",
    "BSTAR": "-0.0000056007",
    "MEAN_MOTION_DOT": "-0.00000163",
    "MEAN_MOTION_DDOT": "0",
    "FILE": "2755049",
    "TLE_LINE0": "0 H-2A R/B",
    "TLE_LINE1": "1 43682U 18084L   20148.61633892 -.00000163 +00000-0 -56007-5 0  9992",
    "TLE_LINE2": "2 43682 098.9011 352.5931 0056880 201.3442 158.5382 15.02836050086527",
    "OBJECT_ID": "2018-084L",
    "OBJECT_NUMBER": "43682",
    "SEMIMAJOR_AXIS": "6936.293",
    "PERIOD": "95.819",
    "APOGEE": "597.612",
    "PERIGEE": "518.704",
    "DECAYED": "0"
  },
  {
    "COMMENT": "GENERATED VIA SPACETRACK.ORG API",
    "ORIGINATOR": "18 SPCS",
    "NORAD_CAT_ID": "43682",
    "OBJECT_NAME": "H-2A R/B",
    "OBJECT_TYPE": "ROCKET BODY",
    "CLASSIFICATION_TYPE": "U",
    "INTLDES": "18084L",
    "EPOCH": "2020-05-28 13:09:48",
    "EPOCH_MICROSECONDS": "773952",
    "MEAN_MOTION": "15.02835552",
    "ECCENTRICITY": "0.0056971",
    "INCLINATION": "98.901",
    "RA_OF_ASC_NODE": "353.6627",
    "ARG_OF_PERICENTER": "198.2833",
    "MEAN_ANOMALY": "161.6346",
    "EPHEMERIS_TYPE": "0",
    "ELEMENT_SET_NO": "999",
    "REV_AT_EPOCH": "8666",
    "BSTAR": "-0.0000088184",
    "MEAN_MOTION_DOT": "-0.00000208",
    "MEAN_MOTION_DDOT": "0",
    "FILE": "2755450",
    "TLE_LINE0": "0 H-2A R/B",
    "TLE_LINE1": "1 43682U 18084L   20149.54848118 -.00000208 +00000-0 -88184-5 0  9995",
    "TLE_LINE2": "2 43682 098.9010 353.6627 0056971 198.2833 161.6346 15.02835552086665",
    "OBJECT_ID": "2018-084L",
    "OBJECT_NUMBER": "43682",
    "SEMIMAJOR_AXIS": "6936.295",
    "PERIOD": "95.819",
    "APOGEE": "597.676",
    "PERIGEE": "518.643",
    "DECAYED": "0"
  },
  {
    "COMMENT": "GENERATED VIA SPACETRACK.ORG API",
    "ORIGINATOR": "18 SPCS",
    "NORAD_CAT_ID": "43682",
    "OBJECT_NAME": "H-2A R/B",
    "OBJECT_TYPE": "ROCKET BODY",
    "CLASSIFICATION_TYPE": "U",
    "INTLDES": "18084L",
    "EPOCH": "2020-05-28 14:45:41",
    "EPOCH_MICROSECONDS": "412096",
    "MEAN_MOTION": "15.02835313",
    "ECCENTRICITY": "0.0056953",
    "INCLINATION": "98.9011",
    "RA_OF_ASC_NODE": "353.7394",
    "ARG_OF_PERICENTER": "198.0309",
    "MEAN_ANOMALY": "161.8874",
    "EPHEMERIS_TYPE": "0",
    "ELEMENT_SET_NO": "999",
    "REV_AT_EPOCH": "8667",
    "BSTAR": "-0.000010995",
    "MEAN_MOTION_DOT": "-0.00000238",
    "MEAN_MOTION_DDOT": "0",
    "FILE": "2755531",
    "TLE_LINE0": "0 H-2A R/B",
    "TLE_LINE1": "1 43682U 18084L   20149.61506264 -.00000238  00000-0 -10995-4 0  9993",
    "TLE_LINE2": "2 43682  98.9011 353.7394 0056953 198.0309 161.8874 15.02835313 86678",
    "OBJECT_ID": "2018-084L",
    "OBJECT_NUMBER": "43682",
    "SEMIMAJOR_AXIS": "6936.295",
    "PERIOD": "95.819",
    "APOGEE": "597.665",
    "PERIGEE": "518.656",
    "DECAYED": "0"
  },
  {
    "COMMENT": "GENERATED VIA SPACETRACK.ORG API",
    "ORIGINATOR": "18 SPCS",
    "NORAD_CAT_ID": "43682",
    "OBJECT_NAME": "H-2A R/B",
    "OBJECT_TYPE": "ROCKET BODY",
    "CLASSIFICATION_TYPE": "U",
    "INTLDES": "18084L",
    "EPOCH": "2020-05-29 14:43:51",
    "EPOCH_MICROSECONDS": "182976",
    "MEAN_MOTION": "15.02834553",
    "ECCENTRICITY": "0.0057009",
    "INCLINATION": "98.9011",
    "RA_OF_ASC_NODE": "354.8856",
    "ARG_OF_PERICENTER": "194.7517",
    "MEAN_ANOMALY": "165.2027",
    "EPHEMERIS_TYPE": "0",
    "ELEMENT_SET_NO": "999",
    "REV_AT_EPOCH": "8682",
    "BSTAR": "-0.000015188",
    "MEAN_MOTION_DOT": "-0.00000296",
    "MEAN_MOTION_DDOT": "0",
    "FILE": "2756089",
    "TLE_LINE0": "0 H-2A R/B",
    "TLE_LINE1": "1 43682U 18084L   20150.61378684 -.00000296 +00000-0 -15188-4 0  9991",
    "TLE_LINE2": "2 43682 098.9011 354.8856 0057009 194.7517 165.2027 15.02834553086820",
    "OBJECT_ID": "2018-084L",
    "OBJECT_NUMBER": "43682",
    "SEMIMAJOR_AXIS": "6936.298",
    "PERIOD": "95.819",
    "APOGEE": "597.706",
    "PERIGEE": "518.620",
    "DECAYED": "0"
  },
  {
    "COMMENT": "GENERATED VIA SPACETRACK.ORG API",
    "ORIGINATOR": "18 SPCS",
    "NORAD_CAT_ID": "43682",
    "OBJECT_NAME": "H-2A R/B",
    "OBJECT_TYPE": "ROCKET BODY",
    "CLASSIFICATION_TYPE": "U",
    "INTLDES": "18084L",
    "EPOCH": "2020-05-29 16:19:43",
    "EPOCH_MICROSECONDS": "859136",
    "MEAN_MOTION": "15.02834526",
    "ECCENTRICITY": "0.0057009",
    "INCLINATION": "98.9011",
    "RA_OF_ASC_NODE": "354.962",
    "ARG_OF_PERICENTER": "194.5342",
    "MEAN_ANOMALY": "165.4243",
    "EPHEMERIS_TYPE": "0",
    "ELEMENT_SET_NO": "999",
    "REV_AT_EPOCH": "8683",
    "BSTAR": "-0.000015176",
    "MEAN_MOTION_DOT": "-0.00000296",
    "MEAN_MOTION_DDOT": "0",
    "FILE": "2756174",
    "TLE_LINE0": "0 H-2A R/B",
    "TLE_LINE1": "1 43682U 18084L   20150.68036874 -.00000296  00000-0 -15176-4 0  9997",
    "TLE_LINE2": "2 43682  98.9011 354.9620 0057009 194.5342 165.4243 15.02834526 86837",
    "OBJECT_ID": "2018-084L",
    "OBJECT_NUMBER": "43682",
    "SEMIMAJOR_AXIS": "6936.298",
    "PERIOD": "95.819",
    "APOGEE": "597.706",
    "PERIGEE": "518.620",
    "DECAYED": "0"
  },
  {
    "COMMENT": "GENERATED VIA SPACETRACK.ORG API",
    "ORIGINATOR": "18 SPCS",
    "NORAD_CAT_ID": "43682",
    "OBJECT_NAME": "H-2A R/B",
    "OBJECT_TYPE": "ROCKET BODY",
    "CLASSIFICATION_TYPE": "U",
    "INTLDES": "18084L",
    "EPOCH": "2020-05-30 14:42:00",
    "EPOCH_MICROSECONDS": "998784",
    "MEAN_MOTION": "15.02833803",
    "ECCENTRICITY": "0.005702",
    "INCLINATION": "98.901",
    "RA_OF_ASC_NODE": "356.0318",
    "ARG_OF_PERICENTER": "191.5063",
    "MEAN_ANOMALY": "168.4847",
    "EPHEMERIS_TYPE": "0",
    "ELEMENT_SET_NO": "999",
    "REV_AT_EPOCH": "8697",
    "BSTAR": "-0.000018218",
    "MEAN_MOTION_DOT": "-0.00000338",
    "MEAN_MOTION_DDOT": "0",
    "FILE": "2756534",
    "TLE_LINE0": "0 H-2A R/B",
    "TLE_LINE1": "1 43682U 18084L   20151.61251156 -.00000338 +00000-0 -18218-4 0  9990",
    "TLE_LINE2": "2 43682 098.9010 356.0318 0057020 191.5063 168.4847 15.02833803086978",
    "OBJECT_ID": "2018-084L",
    "OBJECT_NUMBER": "43682",
    "SEMIMAJOR_AXIS": "6936.300",
    "PERIOD": "95.819",
    "APOGEE": "597.716",
    "PERIGEE": "518.614",
    "DECAYED": "0"
  },
  {
    "COMMENT": "GENERATED VIA SPACETRACK.ORG API",
    "ORIGINATOR": "18 SPCS",
    "NORAD_CAT_ID": "43682",
    "OBJECT_NAME": "H-2A R/B",
    "OBJECT_TYPE": "ROCKET BODY",
    "CLASSIFICATION_TYPE": "U",
    "INTLDES": "18084L",
    "EPOCH": "2020-05-30 16:17:53",
    "EPOCH_MICROSECONDS": "672352",
    "MEAN_MOTION": "15.02833744",
    "ECCENTRICITY": "0.0057023",
    "INCLINATION": "98.901",
    "RA_OF_ASC_NODE": "356.1082",
    "ARG_OF_PERICENTER": "191.2842",
    "MEAN_ANOMALY": "168.7103",
    "EPHEMERIS_TYPE": "0",
    "ELEMENT_SET_NO": "999",
    "REV_AT_EPOCH": "8698",
    "BSTAR": "-0.000018505",
    "MEAN_MOTION_DOT": "-0.00000342",
    "MEAN_MOTION_DDOT": "0",
    "FILE": "2756639",
    "TLE_LINE0": "0 H-2A R/B",
    "TLE_LINE1": "1 43682U 18084L   20151.67909343 -.00000342 +00000-0 -18505-4 0  9998",
    "TLE_LINE2": "2 43682 098.9010 356.1082 0057023 191.2842 168.7103 15.02833744086985",
    "OBJECT_ID": "2018-084L",
    "OBJECT_NUMBER": "43682",
    "SEMIMAJOR_AXIS": "6936.300",
    "PERIOD": "95.819",
    "APOGEE": "597.718",
    "PERIGEE": "518.612",
    "DECAYED": "0"
  },
  {
    "COMMENT": "GENERATED VIA SPACETRACK.ORG API",
    "ORIGINATOR": "18 SPCS",
    "NORAD_CAT_ID": "43682",
    "OBJECT_NAME": "H-2A R/B",
    "OBJECT_TYPE": "ROCKET BODY",
    "CLASSIFICATION_TYPE": "U",
    "INTLDES": "18084L",
    "EPOCH": "2020-05-31 03:29:02",
    "EPOCH_MICROSECONDS": "272416",
    "MEAN_MOTION": "15.02832883",
    "ECCENTRICITY": "0.0057147",
    "INCLINATION": "98.901",
    "RA_OF_ASC_NODE": "356.6429",
    "ARG_OF_PERICENTER": "189.7471",
    "MEAN_ANOMALY": "170.2624",
    "EPHEMERIS_TYPE": "0",
    "ELEMENT_SET_NO": "999",
    "REV_AT_EPOCH": "8705",
    "BSTAR": "-0.000025455",
    "MEAN_MOTION_DOT": "-0.00000438",
    "MEAN_MOTION_DDOT": "0",
    "FILE": "2756712",
    "TLE_LINE0": "0 H-2A R/B",
    "TLE_LINE1": "1 43682U 18084L   20152.14516519 -.00000438  00000-0 -25455-4 0  9998",
    "TLE_LINE2": "2 43682  98.9010 356.6429 0057147 189.7471 170.2624 15.02832883 87050",
    "OBJECT_ID": "2018-084L",
    "OBJECT_NUMBER": "43682",
    "SEMIMAJOR_AXIS": "6936.303",
    "PERIOD": "95.819",
    "APOGEE": "597.807",
    "PERIGEE": "518.529",
    "DECAYED": "0"
  }
]